company_name,address,phone number,latitude,longitude,url
Amazon Dc,"326C+WJH, MIDC Industrial Area, Juinagar, Navi Mumbai, Maharashtra 400705",not found,19.0623029,73.021623,"https://www.google.com/maps/place/Amazon+Dc/@19.083058,72.87894,11z/data=!4m10!1m2!2m1!1sAmazon+mumbai!3m6!1s0x3be7c14bcb898399:0x9e4cdb860f8b59ae!8m2!3d19.0623029!4d73.021623!15sCg1BbWF6b24gbXVtYmFpIgOIAQGSARBjb3Jwb3JhdGVfb2ZmaWNlqgFpCg0vZy8xMWJ5ZDBwY3FoCg0vZy8xMW41a3AxOXEwCggvbS8wbWdrZxABKgoiBmFtYXpvbigAMh4QASIahbrrZHeVu85aRnVeCnfVvivQD2IDaHpPvBQyERACIg1hbWF6b24gbXVtYmFp4AEA!16s%2Fg%2F11fd4jgrhk?entry=ttu&g_ep=EgoyMDI1MDcwNy4wIKXMDSoASAFQAw%3D%3D"
Biz-Metric India Pvt Ltd,"5th Floor, Amar Madhuban Tech Park, Bangalore-Pune Highway, opposite Audi Showroom, Baner, Pune, Maharashtra 411045",090280 01177,18.5501654,73.7730851,"https://www.google.com/maps/place/Biz-Metric+India+Pvt+Ltd/@19.0829325,72.3842372,9z/data=!4m10!1m2!2m1!1sBiz-metric+India+mumbai!3m6!1s0x3bc2bbc1aaaaaaab:0xe742d57d2dc23ec1!8m2!3d18.5501654!4d73.7730851!15sChdCaXotbWV0cmljIEluZGlhIG11bWJhaVoZIhdiaXogbWV0cmljIGluZGlhIG11bWJhaZIBEGNvcnBvcmF0ZV9vZmZpY2WaASRDaGREU1VoTk1HOW5TMFZKUTBGblNVTmlNRTlRUW1wblJSQUKqAVAQASoOIgpiaXogbWV0cmljKAAyHxABIhu_WwY8sSFnEZHLB71AvoKuGaniuhpg_AqtPTgyGxACIhdiaXogbWV0cmljIGluZGlhIG11bWJhaeABAPoBBAg1EEc!16s%2Fg%2F11c1vrn9c3?entry=ttu&g_ep=EgoyMDI1MDcwNy4wIKXMDSoASAFQAw%3D%3D"
Weaving Vibes,not found,096536 84785,19.109287,72.8885789,"https://www.google.com/maps/place/Weaving+Vibes/@19.083058,72.87894,11z/data=!3m1!5s0x3be7c80d4ae953b5:0x962c5ae7fd9588be!4m10!1m2!2m1!1sWeave+mumbai!3m6!1s0x3be7c960f439f00d:0x3b8d322d4d1d94ef!8m2!3d19.109287!4d72.8885789!15sCgxXZWF2ZSBtdW1iYWlaDiIMd2VhdmUgbXVtYmFpkgEMdGV4dGlsZV9taWxsqgFPCg0vZy8xMWtoajl5enhfEAEqCSIFd2VhdmUoADIfEAEiG_QU6sVwbl1F0x3buqybCAHpqjIvt-rQdAovKjIQEAIiDHdlYXZlIG11bWJhaeABAA!16s%2Fg%2F11sycyg964?entry=ttu&g_ep=EgoyMDI1MDcwNy4wIKXMDSoASAFQAw%3D%3D"
Piramal Finance Limited,"B-805 BSEL TECH PARK PLOT NO 39/5 AND 39/5A SECTOR 30A, opp. Vashi Railway Station, WEST, Vashi, Navi Mumbai, Maharashtra 400703",not found,19.0647117,72.9997087,"https://www.google.com/maps/place/Piramal+Finance+Limited/@19.083058,72.87894,11z/data=!4m10!1m2!2m1!1sPiramal+Finance+mumbai!3m6!1s0x3be7c14dc8131b37:0xb36ddf2cfcbcee0b!8m2!3d19.0647117!4d72.9997087!15sChZQaXJhbWFsIEZpbmFuY2UgbXVtYmFpIgOIAQGSAQtsb2FuX2FnZW5jeaoBfAoNL2cvMTFiYzZjXzdycQoNL2cvMTFoYnI5a3NfNAoIL20vMDR2bXAQASoTIg9waXJhbWFsIGZpbmFuY2UoADIfEAEiG-TLUexQlmmbOeESD0w6JGaXdTB0Uw9JnthSEjIaEAIiFnBpcmFtYWwgZmluYW5jZSBtdW1iYWngAQA!16s%2Fg%2F11x9mctjm?entry=ttu&g_ep=EgoyMDI1MDcwNy4wIKXMDSoASAFQAw%3D%3D"
Segments BVI,"Shop No 1 & 2, Veer Dhawal, L.T. Rd, Co-Operative Housing Society, Babhai Naka, Borivali West, Mumbai, Maharashtra 400091",096070 30303,19.2284395,72.8466172,"https://www.google.com/maps/place/Segments+BVI/@19.0829325,72.3842372,9z/data=!4m10!1m2!2m1!1sSegment+System+mumbai!3m6!1s0x3be7b1a4131ffe2d:0x5b914d3998422449!8m2!3d19.2284395!4d72.8466172!15sChVTZWdtZW50IFN5c3RlbSBtdW1iYWlaFyIVc2VnbWVudCBzeXN0ZW0gbXVtYmFpkgESaW50ZXJpb3JfZGVjb3JhdG9ymgEjQ2haRFNVaE5NRzluUzBWSlEwRm5TVU5PTVZsbU5rdG5FQUWqAWUKCC9tLzA0dm1wCggvbS8wYmo2chABKhIiDnNlZ21lbnQgc3lzdGVtKAAyHhABIhq4EPc7M-u_uBq8zQgE-X5sjoLLFtsQrOXdVjIZEAIiFXNlZ21lbnQgc3lzdGVtIG11bWJhaeABAPoBBAgoEDY!16s%2Fg%2F11y1_1bf3t?entry=ttu&g_ep=EgoyMDI1MDcwNy4wIKXMDSoASAFQAw%3D%3D"
Spas Computers Pvt Ltd - ITAD & Computer Refurbishing Company,"Hema Industrial Estate, Sarvodaya Ngr, Rajmata Jijabai Marg, Near, Meghwadi, Police Station, Jogeshwari East, Mumbai, Maharashtra 400069",088988 99899,19.1314271,72.8624915,"https://www.google.com/maps/place/Spas+Computers+Pvt+Ltd+-+ITAD+%26+Computer+Refurbishing+Company/@19.2284395,71.6930527,9z/data=!4m10!1m2!2m1!1sSegment+System+mumbai!3m6!1s0x3be7b7d7906b918f:0xd3643802b62e6657!8m2!3d19.1314271!4d72.8624915!15sChVTZWdtZW50IFN5c3RlbSBtdW1iYWlaFyIVc2VnbWVudCBzeXN0ZW0gbXVtYmFpkgEdY29tcHV0ZXJfc3VwcG9ydF9hbmRfc2VydmljZXOaASRDaGREU1VoTk1HOW5TMFZKUTBGblNVTlNjMHRRVFMxM1JSQUKqAWUKCC9tLzA0dm1wCggvbS8wYmo2chABKhIiDnNlZ21lbnQgc3lzdGVtKAAyHhABIhq4EPc7M-u_uBq8zQgE-X5sjoLLFtsQrOXdVjIZEAIiFXNlZ21lbnQgc3lzdGVtIG11bWJhaeABAPoBBAgAEAw!16s%2Fg%2F11rqx4wbz?entry=ttu&g_ep=EgoyMDI1MDcwNy4wIKXMDSoASAFQAw%3D%3D"
System Mutation,not found,022 6239 9730,19.1154632,72.9180493,"https://www.google.com/maps/place/System+Mutation/@19.2284395,71.6930527,9z/data=!4m10!1m2!2m1!1sSegment+System+mumbai!3m6!1s0x3be7c7ebb7e55555:0x66aeeb9951ede98!8m2!3d19.1154632!4d72.9180493!15sChVTZWdtZW50IFN5c3RlbSBtdW1iYWmSARBzb2Z0d2FyZV9jb21wYW55qgFREAEqEiIOc2VnbWVudCBzeXN0ZW0oADIeEAEiGrgQ9zsz67-4GrzNCAT5fmyOgssW2xCs5d1WMhkQAiIVc2VnbWVudCBzeXN0ZW0gbXVtYmFp4AEA!16s%2Fg%2F11vqv4txhn?entry=ttu&g_ep=EgoyMDI1MDcwNy4wIKXMDSoASAFQAw%3D%3D"
Prodigal Softtech India Pvt. Ltd.,not found,not found,19.2545905,72.9815339,"https://www.google.com/maps/place/Prodigal+Softtech+India+Pvt.+Ltd./@19.176258,72.8413344,12z/data=!4m10!1m2!2m1!1sProdigal+mumbai!3m6!1s0x3be7bb3c1cf9a58d:0x2855a2d9213e144e!8m2!3d19.2545905!4d72.9815339!15sCg9Qcm9kaWdhbCBtdW1iYWmSARBzb2Z0d2FyZV9jb21wYW55qgFFEAEqDCIIcHJvZGlnYWwoADIeEAEiGvwOnoU10aY91MeQ2f-vCdqFUzlazl19RJa_MhMQAiIPcHJvZGlnYWwgbXVtYmFp4AEA!16s%2Fg%2F11ltfy0mqc?entry=ttu&g_ep=EgoyMDI1MDcwNy4wIKXMDSoASAFQAw%3D%3D"
Mercer India,"Tower 2, 12th Floor, One World Centre, Jupiter Mills Compound Senapati Bapat Marg, Fitwala Rd, Mumbai, Maharashtra 400013",022 4342 4500,19.0066217,72.8322403,"https://www.google.com/maps/place/Mercer+India/@19.0905083,72.7646609,12z/data=!3m1!5s0x3be7ceeb76c5a61d:0x295a8cf8c4b51b2d!4m10!1m2!2m1!1sMercer+mumbai!3m6!1s0x3be7c80c75bfffff:0x37fe21942aa3846b!8m2!3d19.0066217!4d72.8322403!15sCg1NZXJjZXIgbXVtYmFpIgOIAQGSAR5idXNpbmVzc19tYW5hZ2VtZW50X2NvbnN1bHRhbnSqAYIBCg0vZy8xMWJjNWZoazR2Cg0vZy8xMWNrZmx3MGd6CgsvZy8xdGN2OWJ5OAoKL20vMDI3N210bAoIL20vMDR2bXAQASoKIgZtZXJjZXIoADIeEAEiGvOzqwE__uTKVGOobK5SMOltCeVUm7DI3mKhMhEQAiINbWVyY2VyIG11bWJhaeABAA!16s%2Fg%2F11ckflw0gz?entry=ttu&g_ep=EgoyMDI1MDcwNy4wIKXMDSoASAFQAw%3D%3D"
Client Associates,"TOWER-3, One International Center, 1701-AB, Senapati Bapat Marg, Elphinstone (W), Mumbai, Maharashtra 400013",022 2422 2454,19.0108043,72.8351075,"https://www.google.com/maps/place/Client+Associates/@19.083058,72.87894,11z/data=!4m10!1m2!2m1!1sLeading+Client+mumbai!3m6!1s0x3be7cf5d9a8c970b:0xe58a9f94cb9c442f!8m2!3d19.0108043!4d72.8351075!15sChVMZWFkaW5nIENsaWVudCBtdW1iYWmSARRmaW5hbmNpYWxfY29uc3VsdGFudKoBZwoJL20vMDFqMG1rCggvbS8wNHZtcBABKhIiDmxlYWRpbmcgY2xpZW50KAAyHxABIhvlPBP-32eAJsnMeJUd79b2RMCID5M9Aq-Mc84yGRACIhVsZWFkaW5nIGNsaWVudCBtdW1iYWngAQA!16s%2Fg%2F11s2h_rwzg?entry=ttu&g_ep=EgoyMDI1MDcwNy4wIKXMDSoASAFQAw%3D%3D"
KGN PLACEMENT A BPO / KPO / CORPORATE FREE RECRUITMENT FIRM,"B-15 office no. 2 Deonar Municipal Colony, near Maharashtra Mutton shop, Govandi West, Maharashtra 400043",097681 23146,19.0522539,72.9244841,"https://www.google.com/maps/place/KGN+PLACEMENT+A+BPO+%2F+KPO+%2F+CORPORATE+FREE+RECRUITMENT+FIRM/@19.0108043,72.5467164,11z/data=!4m10!1m2!2m1!1sLeading+Client+mumbai!3m6!1s0x3be7c14c5d6d1d9d:0x6023d358c37bbfb0!8m2!3d19.0522539!4d72.9244841!15sChVMZWFkaW5nIENsaWVudCBtdW1iYWlaFyIVbGVhZGluZyBjbGllbnQgbXVtYmFpkgEUYnBvX3BsYWNlbWVudF9hZ2VuY3maASNDaFpEU1VoTk1HOW5TMFZKUTBGblNVUTJjM0JRVFVKUkVBRaoBZwoJL20vMDFqMG1rCggvbS8wNHZtcBABKhIiDmxlYWRpbmcgY2xpZW50KAAyHxABIhvlPBP-32eAJsnMeJUd79b2RMCID5M9Aq-Mc84yGRACIhVsZWFkaW5nIGNsaWVudCBtdW1iYWngAQD6AQQIABBC!16s%2Fg%2F11h57wymvp?entry=ttu&g_ep=EgoyMDI1MDcwNy4wIKXMDSoASAFQAw%3D%3D"
Saurabh Bhardwaj - Lead Generation consultant,not found,097697 91086,19.0728793,72.9981865,"https://www.google.com/maps/place/Saurabh+Bhardwaj+-+Lead+Generation+consultant/@19.0522539,72.636093,11z/data=!4m10!1m2!2m1!1sLeading+Client+mumbai!3m6!1s0x3be7c105bb7324f5:0x2e8f9d3ecbb28332!8m2!3d19.0728793!4d72.9981865!15sChVMZWFkaW5nIENsaWVudCBtdW1iYWlaFyIVbGVhZGluZyBjbGllbnQgbXVtYmFpkgEUbWFya2V0aW5nX2NvbnN1bHRhbnSaASNDaFpEU1VoTk1HOW5TMFZKUTBGblNVTjFkVGRUVUZGbkVBRaoBZwoJL20vMDFqMG1rCggvbS8wNHZtcBABKhIiDmxlYWRpbmcgY2xpZW50KAAyHxABIhvlPBP-32eAJsnMeJUd79b2RMCID5M9Aq-Mc84yGRACIhVsZWFkaW5nIGNsaWVudCBtdW1iYWngAQD6AQQIABAr!16s%2Fg%2F11h_wrl_9f?entry=ttu&g_ep=EgoyMDI1MDcwNy4wIKXMDSoASAFQAw%3D%3D"
Tata Consultancy Services,"Banyan Park, Suren Rd, Gundavali, Andheri East, Mumbai, Maharashtra 400093",022 6779 3838,19.1205969,72.857067,"https://www.google.com/maps/place/Tata+Consultancy+Services/@19.0728793,72.7097954,11z/data=!4m10!1m2!2m1!1sLeading+Client+mumbai!3m6!1s0x3be7c82e791896cd:0x83435e5c02f92800!8m2!3d19.1205969!4d72.857067!15sChVMZWFkaW5nIENsaWVudCBtdW1iYWlaFyIVbGVhZGluZyBjbGllbnQgbXVtYmFpkgEQc29mdHdhcmVfY29tcGFueZoBJENoZERTVWhOTUc5blMwVkpRMEZuU1VOS2NqbElWMnQzUlJBQqoBUhABKhIiDmxlYWRpbmcgY2xpZW50KAAyHxABIhvlPBP-32eAJsnMeJUd79b2RMCID5M9Aq-Mc84yGRACIhVsZWFkaW5nIGNsaWVudCBtdW1iYWngAQD6AQQIABAt!16s%2Fg%2F1tmkjfh_?entry=ttu&g_ep=EgoyMDI1MDcwNy4wIKXMDSoASAFQAw%3D%3D"
"3FTech Group Pvt Ltd â€“ CRM, Lead Generation, Software & Marketing Experts in India","Ganraj Niwas, Sector 16, Talvali, Ghansoli Gaon, Ghansoli, Navi Mumbai, Maharashtra 400701",not found,19.125167,72.9938307,"https://www.google.com/maps/place/3FTech+Group+Pvt+Ltd+%E2%80%93+CRM,+Lead+Generation,+Software+%26+Marketing+Experts+in+India/@19.1205969,72.5686759,11z/data=!4m10!1m2!2m1!1sLeading+Client+mumbai!3m6!1s0xa754ff94a18de181:0x8f657326955299d1!8m2!3d19.125167!4d72.9938307!15sChVMZWFkaW5nIENsaWVudCBtdW1iYWlaFyIVbGVhZGluZyBjbGllbnQgbXVtYmFpkgEQc29mdHdhcmVfY29tcGFueaoBUhABKhIiDmxlYWRpbmcgY2xpZW50KAAyHxABIhvlPBP-32eAJsnMeJUd79b2RMCID5M9Aq-Mc84yGRACIhVsZWFkaW5nIGNsaWVudCBtdW1iYWngAQA!16s%2Fg%2F11xmmj29lp?entry=ttu&g_ep=EgoyMDI1MDcwNy4wIKXMDSoASAFQAw%3D%3D"
Mahavir Consulting,"81 RajuVilla,1st Floor, Kings Circle,, Matunga, Mumbai, Maharashtra 400019",099788 02842,19.0303402,72.8569408,"https://www.google.com/maps/place/Mahavir+Consulting/@19.125167,72.7054396,11z/data=!3m1!5s0x3be7cf2948d518f3:0xc1b83754d63cdc6d!4m10!1m2!2m1!1sLeading+Client+mumbai!3m6!1s0x3be7cf2eb495497b:0xb78ccc0793798f90!8m2!3d19.0303402!4d72.8569408!15sChVMZWFkaW5nIENsaWVudCBtdW1iYWlaFyIVbGVhZGluZyBjbGllbnQgbXVtYmFpkgEmaW1taWdyYXRpb25fYW5kX25hdHVyYWxpemF0aW9uX3NlcnZpY2WaASRDaGREU1VoTk1HOW5TMFZKUTBGblRVTlpMVnB1VVhSblJSQUKqAVIQASoSIg5sZWFkaW5nIGNsaWVudCgAMh8QASIb5TwT_t9ngCbJzHiVHe_W9kTAiA-TPQKvjHPOMhkQAiIVbGVhZGluZyBjbGllbnQgbXVtYmFp4AEA-gEECDcQQQ!16s%2Fg%2F11g6rk5sjj?entry=ttu&g_ep=EgoyMDI1MDcwNy4wIKXMDSoASAFQAw%3D%3D"
Zycus,"Plot No. GJ - 07, Seepz++, Andheri East, Mumbai, Maharashtra 400096",022 6640 7676,19.12821,72.878848,"https://www.google.com/maps/place/Zycus/@19.1196478,72.8645868,15z/data=!4m10!1m2!2m1!1sZycus+Infotech+mumbai!3m6!1s0x3be7c81f6aaaaaab:0x10e36f4bd2bba32e!8m2!3d19.12821!4d72.878848!15sChVaeWN1cyBJbmZvdGVjaCBtdW1iYWlaFyIVenljdXMgaW5mb3RlY2ggbXVtYmFpkgEQc29mdHdhcmVfY29tcGFueZoBJENoZERTVWhOTUc5blMwVkpRMEZuU1VOWGNFcHhNVFpCUlJBQqoBURABKhIiDnp5Y3VzIGluZm90ZWNoKAAyHhABIhrzvtGGr5x-eAalVG59JGSTtF4qg5nI7www4jIZEAIiFXp5Y3VzIGluZm90ZWNoIG11bWJhaeABAPoBBAgAEDs!16s%2Fg%2F11b76g5sss?entry=ttu&g_ep=EgoyMDI1MDcwNy4wIKXMDSoASAFQAw%3D%3D"
Mondelez India Foods Private Limited,"Unit No. 2001, 20th Floor Tower-3 (Wing C Indiabulls Finance Centre, Parel, Mumbai, Maharashtra 400013",022 3396 3100,19.0102851,72.8352936,"https://www.google.com/maps/place/Mondelez+India+Foods+Private+Limited/@19.1022433,72.7325238,11z/data=!3m1!5s0x3be7ceeb93b10b1b:0xb7b6857421d78223!4m10!1m2!2m1!1sMondelez+mumbai!3m6!1s0x3be7cee9a0c62b89:0x15e4bec16d987aad!8m2!3d19.0102851!4d72.8352936!15sCg9Nb25kZWxleiBtdW1iYWkiA4gBAZIBEGNvcnBvcmF0ZV9vZmZpY2WqAWEKDS9nLzExYmM4ZGY4azAKCi9tLzBuNTJ5azcQASoMIghtb25kZWxleigAMh8QASIb2TZ6Vc3s9wShFdkxZwlYAVp6llQiY3rsXu1dMhMQAiIPbW9uZGVsZXogbXVtYmFp4AEA!16s%2Fg%2F11btrrhw57?entry=ttu&g_ep=EgoyMDI1MDcwNy4wIKXMDSoASAFQAw%3D%3D"
Digilers Solutions - SEO Company in Mumbai | Digital Marketing Agency | Google Adwords | Social Media Marketing,"G-79, A wing, EXPRESS ZONE, on, Western Express Hwy, Malad, Panch Bawadi, Malad East, Mumbai, Maharashtra 400097",093269 88172,19.1764705,72.8583789,"https://www.google.com/maps/place/Digilers+Solutions+-+SEO+Company+in+Mumbai+%7C+Digital+Marketing+Agency+%7C+Google+Adwords+%7C+Social+Media+Marketing/@19.083058,72.87894,11z/data=!3m1!5s0x3be7b702294296e1:0x67bf5154c580557b!4m10!1m2!2m1!1sDigially+mumbai!3m6!1s0x49849c082816ca33:0x6b0b4b612c69bcd3!8m2!3d19.1764705!4d72.8583789!15sCg9EaWdpYWxseSBtdW1iYWlaESIPZGlnaWFsbHkgbXVtYmFpkgEQbWFya2V0aW5nX2FnZW5jeaoBUAoIL20vMDR2bXAQASoMIghkaWdpYWxseSgAMh8QASIb4K1RYLg044Ycw1IhvbpHQxtdhCSjf7hjJo_SMhMQAiIPZGlnaWFsbHkgbXVtYmFp4AEA!16s%2Fg%2F11v6fqkhs7?entry=ttu&g_ep=EgoyMDI1MDcwNy4wIKXMDSoASAFQAw%3D%3D"
Mumbai,not found,not found,18.9581934,72.8320729,"https://www.google.com/maps/place/Mumbai,+Maharashtra/@19.0828067,72.7141256,11z/data=!4m10!1m2!2m1!1s9nexus+mumbai!3m6!1s0x3be7c6306644edc1:0x5da4ed8f8d648c69!8m2!3d18.9581934!4d72.8320729!15sCg05bmV4dXMgbXVtYmFpkgEIbG9jYWxpdHngAQA!16zL20vMDR2bXA?entry=ttu&g_ep=EgoyMDI1MDcwNy4wIKXMDSoASAFQAw%3D%3D"
Accenture,"B 02, Godrej Business District, 1st to 6th Floor, Block-C, and 3rd Floor Block â€œA, &, Lal Bahadur Shastri Marg, Pirojshanagar, Vikhroli West, Mumbai, Maharashtra 400079",022 5025 0002,19.1173396,72.9264473,"https://www.google.com/maps/place/Accenture/@19.083058,72.87894,11z/data=!4m10!1m2!2m1!1sAccenture+mumbai!3m6!1s0x3be7c793847b16cb:0x2f7761f2dad56f0c!8m2!3d19.1173396!4d72.9264473!15sChBBY2NlbnR1cmUgbXVtYmFpIgOIAQGSAR5idXNpbmVzc19tYW5hZ2VtZW50X2NvbnN1bHRhbnSqAYUBCg0vZy8xMWJjNjRiejNfCgsvZy8xdHNia2xrcAoLL2cvMXZkNl90NDIKCS9tLzAxcnAyYwoIL20vMDR2bXAQASoNIglhY2NlbnR1cmUoADIeEAEiGr63XP0hziF_lF1blnxUAyKVdwKy-DZT3ibVMhQQAiIQYWNjZW50dXJlIG11bWJhaeABAA!16s%2Fg%2F1tsbklkp?entry=ttu&g_ep=EgoyMDI1MDcwNy4wIKXMDSoASAFQAw%3D%3D"
SPEARHEAD LIVE INDIA PRIVATE LIMITED,"Dheeraj Swapna, Pali Naka, Pali Market, Bandra West, Mumbai, Maharashtra 400050",022 6715 1000,19.0622194,72.8292773,"https://www.google.com/maps/place/SPEARHEAD+LIVE+INDIA+PRIVATE+LIMITED/@19.0582644,72.8281599,16z/data=!4m10!1m2!2m1!1sSpearhead+Professional+mumbai!3m6!1s0x3be7c914bdd26e17:0x7d4fb3acbb01adb1!8m2!3d19.0622194!4d72.8292773!15sCh1TcGVhcmhlYWQgUHJvZmVzc2lvbmFsIG11bWJhaVofIh1zcGVhcmhlYWQgcHJvZmVzc2lvbmFsIG11bWJhaZIBGWludGVybmV0X3NlcnZpY2VfcHJvdmlkZXKqAWIQASoaIhZzcGVhcmhlYWQgcHJvZmVzc2lvbmFsKAAyHxABIhvWUitTYsnknP3COyusCEll4K1g6emsam-pnG8yIRACIh1zcGVhcmhlYWQgcHJvZmVzc2lvbmFsIG11bWJhaeABAA!16s%2Fg%2F11c32r6hrf?entry=ttu&g_ep=EgoyMDI1MDcwNy4wIKXMDSoASAFQAw%3D%3D"
Lodha Excelus,"Apollo Mills Compound, NM Joshi Marg, Mahalakshmi, Mumbai, Maharashtra 400011",022 6133 4400,18.9878692,72.8291534,"https://www.google.com/maps/place/Lodha+Excelus/@19.083058,72.87894,11z/data=!4m10!1m2!2m1!1sLodha+Group+mumbai!3m6!1s0x3be7ce5ff0c91c61:0x99e5f5f575271292!8m2!3d18.9878692!4d72.8291534!15sChJMb2RoYSBHcm91cCBtdW1iYWkiA4gBAZIBEGNvcnBvcmF0ZV9vZmZpY2WqAWYKDS9nLzExYmM1Z3gxZGgKCi9tLzBkbG04eXQQASoPIgtsb2RoYSBncm91cCgAMh4QASIad_-sCLNyT4kNg4KiSN1NJDNdvlzMlhmg9VoyFhACIhJsb2RoYSBncm91cCBtdW1iYWngAQA!16s%2Fg%2F1td40zbm?entry=ttu&g_ep=EgoyMDI1MDcwNy4wIKXMDSoASAFQAw%3D%3D"
Bizotics Tech Consultancy & Services Pvt. Ltd.,"3rd floor, V Mall, 342, Kandivali, Thakur Village, Kandivali E, Mumbai, Maharashtra 400101",098199 39971,19.2130266,72.8677019,"https://www.google.com/maps/place/Bizotics+Tech+Consultancy+%26+Services+Pvt.+Ltd./@19.16488,72.83875,12z/data=!3m1!5s0x3be7b776ca0aec73:0xe9a9581f572e167e!4m10!1m2!2m1!1sBiz+Tecno+mumbai!3m6!1s0x3be7b73851b00025:0xedc1e993a5dd8bf!8m2!3d19.2130266!4d72.8677019!15sChBCaXogVGVjbm8gbXVtYmFpWhIiEGJpeiB0ZWNubyBtdW1iYWmSARBzb2Z0d2FyZV9jb21wYW55mgEkQ2hkRFNVaE5NRzluUzBWSlEwRm5TVU16YmpWVUxXNW5SUkFCqgFXCg0vZy8xMWc2cWtkemxiEAEqDSIJYml6IHRlY25vKAAyHxABIhuPnpqkBq2ZYxktXAREabox-YoHs8gX-93-WBIyFBACIhBiaXogdGVjbm8gbXVtYmFp4AEA-gEECAAQMg!16s%2Fg%2F11gd1tzjw4?entry=ttu&g_ep=EgoyMDI1MDcwNy4wIKXMDSoASAFQAw%3D%3D"
HERE Mumbai,"Unit No. 1, 3rd Office Level Building No. 4 Serene Properties SEZ Mindspace, Navi Mumbai, Maharashtra 400708",022 6607 8000,19.1765229,72.9927878,"https://www.google.com/maps/place/HERE+Mumbai/@19.1645576,72.8411901,12z/data=!4m10!1m2!2m1!1sHere+Technologies+mumbai!3m6!1s0x3be7bf48fbce3c61:0x290badd63a1561fb!8m2!3d19.1765229!4d72.9927878!15sChhIZXJlIFRlY2hub2xvZ2llcyBtdW1iYWkiA4gBAZIBEHNvZnR3YXJlX2NvbXBhbnmqAXIKDS9nLzExYnlsNHNwX3QKCi9tLzA0bXlnbTQQASoVIhFoZXJlIHRlY2hub2xvZ2llcygAMh4QASIa4EzTouibDTsZBrqoC0moi0WfFRKoTgntqwIyHBACIhhoZXJlIHRlY2hub2xvZ2llcyBtdW1iYWngAQA!16s%2Fg%2F11b5pjffz2?entry=ttu&g_ep=EgoyMDI1MDcwNy4wIKXMDSoASAFQAw%3D%3D"
BNP Paribas India Solutions Pvt. Ltd.,"Infinity, Building No.4, 601, Off Film City Road, Malad, Raheja Housing and Commercial Complex, Malad East, Mumbai, Maharashtra 400097",022 6783 1000,19.1764356,72.8828069,"https://www.google.com/maps/place/BNP+Paribas+India+Solutions+Pvt.+Ltd./@19.1153234,72.7838584,12z/data=!3m1!5s0x3be7b79de2867ceb:0xf4e76c3702a3aa69!4m10!1m2!2m1!1sBNP+Paribas+mumbai!3m6!1s0x3be7b7989b65347b:0x8ebf37d546785cd!8m2!3d19.1764356!4d72.8828069!15sChJCTlAgUGFyaWJhcyBtdW1iYWkiA4gBAZIBEGNvcnBvcmF0ZV9vZmZpY2WqAVQKDS9nLzExYmM2dGg3bmcKCS9tLzAycWhrNBABMh4QASIaj_jYJkdgjJde019qpIMctRVZUHetsQGmiGIyFhACIhJibnAgcGFyaWJhcyBtdW1iYWngAQA!16s%2Fg%2F1vtzfpdw?entry=ttu&g_ep=EgoyMDI1MDcwNy4wIKXMDSoASAFQAw%3D%3D"
India Business Group,"3, MAKER CHAMBER, 51-57, Nariman Point, Mumbai, Maharashtra 400021",022 6747 1646,18.9248887,72.8231604,"https://www.google.com/maps/place/India+Business+Group/@19.083058,72.87894,11z/data=!4m10!1m2!2m1!1sLeading+Business+Group+mumbai!3m6!1s0x3be7d1e95f255555:0x8116394f78344663!8m2!3d18.9248887!4d72.8231604!15sCh1MZWFkaW5nIEJ1c2luZXNzIEdyb3VwIG11bWJhaVofIh1sZWFkaW5nIGJ1c2luZXNzIGdyb3VwIG11bWJhaZIBF25vbl9wcm9maXRfb3JnYW5pemF0aW9umgEjQ2haRFNVaE5NRzluUzBWSlEwRm5TVVE1ZGtvelVFMW5FQUWqAWIQASoaIhZsZWFkaW5nIGJ1c2luZXNzIGdyb3VwKAAyHxABIhvgL62-w_g21jRKKNX57ug6rpPoe0sUabcKx5QyIRACIh1sZWFkaW5nIGJ1c2luZXNzIGdyb3VwIG11bWJhaeABAPoBBAgAEDI!16s%2Fg%2F11hzlxjc81?entry=ttu&g_ep=EgoyMDI1MDcwNy4wIKXMDSoASAFQAw%3D%3D"
Oracle India,"Unit No. 501, Level 5, No, First International Financial Center, C54 & 55, G Block, Bandra Kurla Complex, Bandra East, Mumbai, Maharashtra 400051",022 6175 8000,19.0690706,72.8701536,"https://www.google.com/maps/place/Oracle+India/@19.1057475,72.7723701,12z/data=!4m10!1m2!2m1!1sOracle+mumbai!3m6!1s0x3be7c8ec320045b3:0xedf9281b34065ab8!8m2!3d19.0690706!4d72.8701536!15sCg1PcmFjbGUgbXVtYmFpIgOIAQGSARBzb2Z0d2FyZV9jb21wYW55qgFaCg0vZy8xMWJicmhjOXRuCggvbS8wNW5qdxABKgoiBm9yYWNsZSgAMh4QASIat7jty0vazhZtqBVfQ2WrjusjRYJNNIZjmtQyERACIg1vcmFjbGUgbXVtYmFp4AEA!16s%2Fg%2F1thp6ghg?entry=ttu&g_ep=EgoyMDI1MDcwNy4wIKXMDSoASAFQAw%3D%3D"
Pacific Group of Companies (Mumbai Office),"Office No- 4, 4th Floor K Raheja Prime, Marol CHS Rd, Marol, Andheri East, Mumbai, Maharashtra 400059",022 4010 8510,19.1099835,72.8834761,"https://www.google.com/maps/place/Pacific+Group+of+Companies+(Mumbai+Office)/@19.083058,72.87894,11z/data=!3m1!5s0x3be7c813187915ed:0xed63c8561f4e6743!4m10!1m2!2m1!1sa+global+professional+services+company+with+leading+capabili+mumbai!3m6!1s0x3be7c937cd7a9b75:0xf45eae15881032f7!8m2!3d19.1099835!4d72.8834761!15sCkNhIGdsb2JhbCBwcm9mZXNzaW9uYWwgc2VydmljZXMgY29tcGFueSB3aXRoIGxlYWRpbmcgY2FwYWJpbGkgbXVtYmFpWkUiQ2EgZ2xvYmFsIHByb2Zlc3Npb25hbCBzZXJ2aWNlcyBjb21wYW55IHdpdGggbGVhZGluZyBjYXBhYmlsaSBtdW1iYWmSAQticG9fY29tcGFueZoBI0NoWkRTVWhOTUc5blMwVkpRMEZuU1VObGNuWjFTV1JCRUFF4AEA-gEECB4QQw!16s%2Fg%2F11m_rf_lfz?entry=ttu&g_ep=EgoyMDI1MDcwNy4wIKXMDSoASAFQAw%3D%3D"
"101 CONNECT: Website, Software, Mobile App Developers Since 1999 | Mumbai.","Plot A, Mahant Chambers, 315, Rd Number 34, opp. Passport Office, Sathe Nagar, Jai Bhavani Nagar, Wagle Industrial Estate, Thane West, Thane, Maharashtra 400604",098201 82560,19.2010141,72.9499218,"https://www.google.com/maps/place/101+CONNECT:+Website,+Software,+Mobile+App+Developers+Since+1999+%7C+Mumbai./@19.083058,72.87894,11z/data=!4m9!1m2!2m1!1sDigiture+mumbai!3m5!1s0x3be7b8f78883bf3b:0x2afbf6d68733b8b7!8m2!3d19.2010141!4d72.9499218!16s%2Fg%2F11dxnlbrbk?entry=ttu&g_ep=EgoyMDI1MDcwNy4wIKXMDSoASAFQAw%3D%3D"
Unicon Logistics,"801&802, Antariksh Building, Gamdevi, Marol, Andheri East, Mumbai, Maharashtra 400059",083558 27271,19.1093242,72.8815283,"https://www.google.com/maps/place/Unicon+Logistics/@19.0829325,72.3842372,9z/data=!3m1!5s0x3be7c814ba7b7ab5:0xe987a1e8afec6e5e!4m10!1m2!2m1!1sUnicon+Connectors+mumbai!3m6!1s0x3be7c9b40f92d70b:0xc3620b214477cb61!8m2!3d19.1093242!4d72.8815283!15sChhVbmljb24gQ29ubmVjdG9ycyBtdW1iYWlaGiIYdW5pY29uIGNvbm5lY3RvcnMgbXVtYmFpkgEQc2hpcHBpbmdfc2VydmljZaoBYgoIL20vMDR2bXAQASoVIhF1bmljb24gY29ubmVjdG9ycygAMh8QASIbutJ9VeuxhVqdSdCh5GRm-uH-ZgIx5Vb2wbdUMhwQAiIYdW5pY29uIGNvbm5lY3RvcnMgbXVtYmFp4AEA!16s%2Fg%2F11gmfx_dc3?entry=ttu&g_ep=EgoyMDI1MDcwNy4wIKXMDSoASAFQAw%3D%3D"
Prisma AI,"5th Floor, Star Hub, 2, Chhatrapati Shivaji Maharaj Int'l Airport Rd, J B Nagar, Andheri East, Mumbai, Maharashtra 400059",022 4503 1100,19.1054306,72.86837,"https://www.google.com/maps/place/Prisma+AI/@19.1088688,72.8632846,16z/data=!4m10!1m2!2m1!1sPrisma+Global+mumbai!3m6!1s0x3be7c822f93d3963:0x2126bd72c696c1ed!8m2!3d19.1054306!4d72.86837!15sChRQcmlzbWEgR2xvYmFsIG11bWJhaZIBEHNvZnR3YXJlX2NvbXBhbnmqAT0QATIfEAEiG9pKn4N6hYLIu1eVqnRGzjh9ZT5uD2061p5vCzIYEAIiFHByaXNtYSBnbG9iYWwgbXVtYmFp4AEA!16s%2Fg%2F11c1nqth8n?entry=ttu&g_ep=EgoyMDI1MDcwNy4wIKXMDSoASAFQAw%3D%3D"
"Adaptive Tech Solutions -CCTV,IP, Camera, WiFi Installation, Acces Points, Telecom Intercom,Office Repair service in Fort","2nd Floor, Doctor House Building, 113, Bora Bazar St, Borabazar Precinct, Ballard Estate, Fort, Mumbai, Maharashtra 400001",090211 13174,18.9368272,72.8359159,"https://www.google.com/maps/place/Adaptive+Tech+Solutions+-CCTV,IP,+Camera,+WiFi+Installation,+Acces+Points,+Telecom+Intercom,Office+Repair+service+in+Fort/@19.0213476,72.779408,12z/data=!4m10!1m2!2m1!1sAidaptive+mumbai!3m6!1s0x3be7d14e7247662d:0xfcd7ea3b21988dcb!8m2!3d18.9368272!4d72.8359159!15sChBBaWRhcHRpdmUgbXVtYmFpWhIiEGFpZGFwdGl2ZSBtdW1iYWmSASN0ZWxlY29tbXVuaWNhdGlvbnNfc2VydmljZV9wcm92aWRlcqoBSBABKg0iCWFpZGFwdGl2ZSgAMh8QASIb87OFyYvJUFOfKpCuw0iF88IUigZp7x68542tMhQQAiIQYWlkYXB0aXZlIG11bWJhaeABAA!16s%2Fg%2F11kn2zw2n3?entry=ttu&g_ep=EgoyMDI1MDcwNy4wIKXMDSoASAFQAw%3D%3D"
Vi - Vodafone Idea mini Store,not found,096196 58508,18.9982297,72.8233491,"https://www.google.com/maps/place/Vi+-+Vodafone+Idea+mini+Store/@18.9982348,72.8207742,17z/data=!4m10!1m2!2m1!1sIdea+Elan+mumbai!3m6!1s0x3be7ceea72c19b83:0xc06316f245495a78!8m2!3d18.9982297!4d72.8233491!15sChBJZGVhIEVsYW4gbXVtYmFpkgEjdGVsZWNvbW11bmljYXRpb25zX3NlcnZpY2VfcHJvdmlkZXLgAQA!16s%2Fg%2F1pv1rvzz2?entry=ttu&g_ep=EgoyMDI1MDcwNy4wIKXMDSoASAFQAw%3D%3D"
NetTech India,"Railway Station, 302, A Wing Om Shivam Center, Sector 20, opposite Nerul, Nerul West, Navi Mumbai, Maharashtra 400706",093724 35654,19.0343512,73.0169596,"https://www.google.com/maps/place/NetTech+India/@19.083058,72.87894,11z/data=!3m1!5s0x3be7c3ea2e06235b:0x999dcb1fd890b195!4m10!1m2!2m1!1sNettech+mumbai!3m6!1s0x3be7c324235f8fc9:0xc840e679136411e1!8m2!3d19.0343512!4d73.0169596!15sCg5OZXR0ZWNoIG11bWJhaZIBEGVkdWNhdGlvbl9jZW50ZXKqAUUKDS9nLzExa2MwZ3Y5cWsQATIeEAEiGuBM07D39pm9ULK9XzEhSkWMcXHUeuHXSSK7MhIQAiIObmV0dGVjaCBtdW1iYWngAQA!16s%2Fg%2F11sv_h8wkr?entry=ttu&g_ep=EgoyMDI1MDcwNy4wIKXMDSoASAFQAw%3D%3D"
HDFC Bank,"Shop No 10 to 12, Giriraj Complex, Seawoods West, Sector-48, Seawoods, Navi Mumbai, Maharashtra 400706",094097 67967,19.0187579,73.0165385,"https://www.google.com/maps/place/HDFC+Bank/@19.083058,72.87894,11z/data=!4m10!1m2!2m1!1sHdfc+Bank+mumbai!3m6!1s0x3be7c3bd77d8c63f:0x91479abf1b699a3e!8m2!3d19.0187579!4d73.0165385!15sChBIZGZjIEJhbmsgbXVtYmFpIgOIAQFaEiIQaGRmYyBiYW5rIG11bWJhaZIBBGJhbmuqAWMKDS9nLzExYjdyeGw1M3QKCi9tLzAyNXR6Z2sQASoNIgloZGZjIGJhbmsoADIfEAEiG7Yl3eX5Wfsh2pnzgRDaQrTfGg8DKhmaoaEBXTIUEAIiEGhkZmMgYmFuayBtdW1iYWngAQA!16s%2Fg%2F1ptx6t2cv?entry=ttu&g_ep=EgoyMDI1MDcwNy4wIKXMDSoASAFQAw%3D%3D"
Impact Analytics,"Block-C, Ground Floor, Global Technology Park, Outer Ring Rd, Bellandur, Bengaluru, Karnataka 560103",066789 95128,12.9246036,77.683151,"https://www.google.com/maps/place/Impact+Analytics/@19.0175225,67.7439548,6z/data=!3m1!5s0x3bae13099261c14f:0xbfb65e8f62b3cd82!4m10!1m2!2m1!1sImpact+Analytics+mumbai!3m6!1s0x3bae1493c7eb10b7:0x68795f97a6d67137!8m2!3d12.9246036!4d77.683151!15sChdJbXBhY3QgQW5hbHl0aWNzIG11bWJhaVoZIhdpbXBhY3QgYW5hbHl0aWNzIG11bWJhaZIBEHNvZnR3YXJlX2NvbXBhbnmaASRDaGREU1VoTk1HOW5TMFZKUTBGblNVTlNjSE0zY205blJSQUKqAVYQASoUIhBpbXBhY3QgYW5hbHl0aWNzKAAyHxABIhvaSp9FflXavBVkz8zSE8xueExx_EekXQva-g8yGxACIhdpbXBhY3QgYW5hbHl0aWNzIG11bWJhaeABAPoBBAgAEBE!16s%2Fg%2F11c17cy1lb?entry=ttu&g_ep=EgoyMDI1MDcwNy4wIKXMDSoASAFQAw%3D%3D"
Impact App,not found,not found,19.0759882,72.9918123,"https://www.google.com/maps/place/Impact+App/@19.0175225,67.7439548,6z/data=!3m1!5s0x3bae13099261c14f:0xbfb65e8f62b3cd82!4m10!1m2!2m1!1sImpact+Analytics+mumbai!3m6!1s0x3be7c7650ad88acf:0x8ee95b6cf12231a6!8m2!3d19.0759882!4d72.9918123!15sChdJbXBhY3QgQW5hbHl0aWNzIG11bWJhaZIBEHNvZnR3YXJlX2NvbXBhbnmqAVYQASoUIhBpbXBhY3QgYW5hbHl0aWNzKAAyHxABIhvaSp9FflXavBVkz8zSE8xueExx_EekXQva-g8yGxACIhdpbXBhY3QgYW5hbHl0aWNzIG11bWJhaeABAA!16s%2Fg%2F11hzd1dsqt?entry=ttu&g_ep=EgoyMDI1MDcwNy4wIKXMDSoASAFQAw%3D%3D"
Shree Shashwat Solutions,"Mahalakshmi CHS Rupali Cinema Road, near Bank Of Maharashtra, Panvel, Navi Mumbai, Maharashtra 410206",not found,18.9847535,73.1115851,"https://www.google.com/maps/place/Shree+Shashwat+Solutions/@19.0829325,72.3842372,9z/data=!4m10!1m2!2m1!1sShashwath+Solution+mumbai!3m6!1s0x3be7e8697c3c60d7:0x7ee75bf4533aa23d!8m2!3d18.9847535!4d73.1115851!15sChlTaGFzaHdhdGggU29sdXRpb24gbXVtYmFpWhsiGXNoYXNod2F0aCBzb2x1dGlvbiBtdW1iYWmSAR9zb2xhcl9lbmVyZ3lfZXF1aXBtZW50X3N1cHBsaWVyqgFaEAEqFiISc2hhc2h3YXRoIHNvbHV0aW9uKAAyHxABIhvaUzaQ7t_pD4-KEyz4CpqLO-cnF2NW-VrfT1QyHRACIhlzaGFzaHdhdGggc29sdXRpb24gbXVtYmFp4AEA!16s%2Fg%2F11gbt_v__7?entry=ttu&g_ep=EgoyMDI1MDcwNy4wIKXMDSoASAFQAw%3D%3D"
National Payments Corporation of India,"1001A, B wing, 10th Floor, The Capital, Bandra Kurla Complex Rd, Bharat Nagar, Bandra East, Mumbai, Maharashtra 400051",022 4000 9100,19.0635936,72.8619972,"https://www.google.com/maps/place/National+Payments+Corporation+of+India/@19.1032789,72.8170534,13z/data=!3m1!5s0x3be7c87b9505645d:0x72b4388ef06cc9f1!4m10!1m2!2m1!1sNational+Payments+Corporation+of+India+(NPCI)+mumbai!3m6!1s0x3bcb90c185f51d53:0xbe9125a7a80fc2!8m2!3d19.0635936!4d72.8619972!15sCjROYXRpb25hbCBQYXltZW50cyBDb3Jwb3JhdGlvbiBvZiBJbmRpYSAoTlBDSSkgbXVtYmFpIgOIAQGSARFnb3Zlcm5tZW50X29mZmljZaoBpwEKDS9nLzExY3M1ZGRjbV8KCi9tLzBjNDBnM2QQASovIituYXRpb25hbCBwYXltZW50cyBjb3Jwb3JhdGlvbiBvZiBpbmRpYSBucGNpKAAyHxABIhu325e2CY2V_g5fOLA8ZwTkfYKR9PgR89R9UiYyNhACIjJuYXRpb25hbCBwYXltZW50cyBjb3Jwb3JhdGlvbiBvZiBpbmRpYSBucGNpIG11bWJhaeABAA!16s%2Fg%2F11cp09tr_w?entry=ttu&g_ep=EgoyMDI1MDcwNy4wIKXMDSoASAFQAw%3D%3D"
Bajaj Allianz General Insurance - Shushrusha Heart Care Centre And Speciality Hospital,not found,022 6459 6661,19.043479,73.009472,"https://www.google.com/maps/place/Bajaj+Allianz+General+Insurance+-+Shushrusha+Heart+Care+Centre+And+Speciality+Hospital/@19.083058,72.87894,11z/data=!4m10!1m2!2m1!1sCare+Allianz+mumbai!3m6!1s0x3be7c3ad25cdecbd:0xfe5f19aebe0aeca6!8m2!3d19.043479!4d73.009472!15sChNDYXJlIEFsbGlhbnogbXVtYmFpIgOIAQGSARFpbnN1cmFuY2VfY29tcGFueaoBcgoNL2cvMTFiYzV6cWQxdgoJL20vMDNzNTlqCggvbS8wNHZtcBABKhAiDGNhcmUgYWxsaWFueigAMh8QASIbiDy0dN4NPvuxIimc3dmN1COgoEinrahkGrOCMhcQAiITY2FyZSBhbGxpYW56IG11bWJhaeABAA!16s%2Fg%2F11lnhxymbq?entry=ttu&g_ep=EgoyMDI1MDcwNy4wIKXMDSoASAFQAw%3D%3D"
For Young India - B Office,"Cross Rd A, Shanti Nagar, Andheri East, Mumbai, Maharashtra 400093",not found,19.1205819,72.8652582,"https://www.google.com/maps/place/For+Young+India+-+B+Office/@19.1195803,72.8503016,13z/data=!4m10!1m2!2m1!1sCoinbase+India+Services+mumbai!3m6!1s0x3be7c9416b09d233:0xfa277febfc37e1ae!8m2!3d19.1205819!4d72.8652582!15sCh5Db2luYmFzZSBJbmRpYSBTZXJ2aWNlcyBtdW1iYWlaICIeY29pbmJhc2UgaW5kaWEgc2VydmljZXMgbXVtYmFpkgEQY29ycG9yYXRlX29mZmljZZoBI0NoWkRTVWhOTUc5blMwVkpRMEZuU1VReGJUVXphRlJSRUFFqgFwCgovbS8wd3IzcWpxEAEqGyIXY29pbmJhc2UgaW5kaWEgc2VydmljZXMoADIfEAEiG7idCYJvF5RA2ZrvGN5f88d_NzxYUeTIehJ5PzIiEAIiHmNvaW5iYXNlIGluZGlhIHNlcnZpY2VzIG11bWJhaeABAPoBBAgAEAw!16s%2Fg%2F11rdbwcnn1?entry=ttu&g_ep=EgoyMDI1MDcwNy4wIKXMDSoASAFQAw%3D%3D"
NOVELTECH FEEDS PVT LTD,"5th Floor, Nirton House, 5th floor, Dr Annie Besant Rd, Hanuman Nagar, Worli, Mumbai, Maharashtra 400030",076600 11560,19.0098227,72.8205183,"https://www.google.com/maps/place/NOVELTECH+FEEDS+PVT+LTD/@19.083058,72.87894,11z/data=!3m1!5s0x3be7ce9618a0d807:0x869ad8b1abf9ad0e!4m10!1m2!2m1!1sNovel+Office+mumbai!3m6!1s0x3be7cf089ae3074d:0x5a24a63ea30209c3!8m2!3d19.0098227!4d72.8205183!15sChNOb3ZlbCBPZmZpY2UgbXVtYmFpkgEQY29ycG9yYXRlX29mZmljZaoBWAoIL20vMDVoZ2oQASoQIgxub3ZlbCBvZmZpY2UoADIfEAEiG_a81CKMF0-mxDREZqvHiwiDvN1-siC3hgx7zzIXEAIiE25vdmVsIG9mZmljZSBtdW1iYWngAQA!16s%2Fg%2F11fj175rsy?entry=ttu&g_ep=EgoyMDI1MDcwNy4wIKXMDSoASAFQAw%3D%3D"
Novel Homes,not found,022 4976 7801,19.2034401,72.9495651,"https://www.google.com/maps/place/Novel+Homes/@19.0098227,72.5321272,11z/data=!3m1!5s0x3be7ce9618a0d807:0x869ad8b1abf9ad0e!4m10!1m2!2m1!1sNovel+Office+mumbai!3m6!1s0x3be7b90bafd39ea7:0xb9e62dae20cd1f50!8m2!3d19.2034401!4d72.9495651!15sChNOb3ZlbCBPZmZpY2UgbXVtYmFpkgEQY29ycG9yYXRlX29mZmljZaoBWAoIL20vMDVoZ2oQASoQIgxub3ZlbCBvZmZpY2UoADIfEAEiG_a81CKMF0-mxDREZqvHiwiDvN1-siC3hgx7zzIXEAIiE25vdmVsIG9mZmljZSBtdW1iYWngAQA!16s%2Fg%2F11j09ybb9g?entry=ttu&g_ep=EgoyMDI1MDcwNy4wIKXMDSoASAFQAw%3D%3D"
Dream11,"1201-1202, 12th Floor, Wing-A, ONE BKC, Plot No. 66, G Block BKC, Bandra Kurla Complex, Bandra East, Mumbai, Maharashtra 400051",not found,19.0606404,72.8653909,"https://www.google.com/maps/place/Dream11/@19.0829325,72.3842372,9z/data=!3m1!5s0x3be7c8ef156ca679:0x39aea6d3c64cccf7!4m10!1m2!2m1!1sDream11+mumbai!3m6!1s0x3be7c8e635ebc211:0x63f0ef49080850eb!8m2!3d19.0606404!4d72.8653909!15sCg5EcmVhbTExIG11bWJhaZIBEGNvcnBvcmF0ZV9vZmZpY2WqAVMKDS9nLzExanNzeDNsa18QASoLIgdkcmVhbTExKAAyHxABIhu1XDKACrojsz1Hr1dcVUlXBRtukSrTejh_sOMyEhACIg5kcmVhbTExIG11bWJhaeABAA!16s%2Fg%2F11jssx3lk_?entry=ttu&g_ep=EgoyMDI1MDcwNy4wIKXMDSoASAFQAw%3D%3D"
Sun Pharmaceutical Industries Ltd.,"CTS, 1, SUN HOUSE, No. 201 B, Western Express Hwy, Geetanjali Railway Colony, Ram Nagar, Goregaon, Mumbai, Maharashtra 400063",022 4324 4324,19.1437704,72.8551596,"https://www.google.com/maps/place/Sun+Pharmaceutical+Industries+Ltd./@19.1309978,72.8434031,14z/data=!4m10!1m2!2m1!1sSun+Pharma+mumbai!3m6!1s0x3be7c82f4e9aef5d:0xbf859e58fca7b6e!8m2!3d19.1437704!4d72.8551596!15sChFTdW4gUGhhcm1hIG11bWJhaSIDiAEBkgEWcGhhcm1hY2V1dGljYWxfY29tcGFueaoBZQoNL2cvMTFidzFfMzIyaAoKL20vMDQ3YzJfehABKg4iCnN1biBwaGFybWEoADIfEAEiG7_fi_DRnHQv09qkcii5tCgQc0ba_6ThR34RcjIVEAIiEXN1biBwaGFybWEgbXVtYmFp4AEA!16s%2Fg%2F1hhj8m8xs?entry=ttu&g_ep=EgoyMDI1MDcwNy4wIKXMDSoASAFQAw%3D%3D"
SunPharma Midc,"89, Rd Number 15, Marol MIDC Industry Estate, Andheri East, Mumbai, Maharashtra 400069",not found,19.1181465,72.8728459,"https://www.google.com/maps/place/SunPharma+Midc/@19.1437704,72.8191107,14z/data=!4m10!1m2!2m1!1sSun+Pharma+mumbai!3m6!1s0x3be7c83d258dac3d:0x9d8b8b7d7597129f!8m2!3d19.1181465!4d72.8728459!15sChFTdW4gUGhhcm1hIG11bWJhaSIDiAEBkgEQY29ycG9yYXRlX29mZmljZaoBZQoNL2cvMTFidzFfMzIyaAoKL20vMDQ3YzJfehABKg4iCnN1biBwaGFybWEoADIfEAEiG7_fi_DRnHQv09qkcii5tCgQc0ba_6ThR34RcjIVEAIiEXN1biBwaGFybWEgbXVtYmFp4AEA!16s%2Fg%2F11dyx4pcyn?entry=ttu&g_ep=EgoyMDI1MDcwNy4wIKXMDSoASAFQAw%3D%3D"
Pharma Access,"SUPREME CHAMBERS, 702, 17/18, Veera Desai Rd, Shah Industrial Estate, Andheri West, Mumbai, Maharashtra 400053",022 6819 3888,19.1336691,72.8364399,"https://www.google.com/maps/place/Pharma+Access/@19.1814199,72.8031401,13z/data=!4m10!1m2!2m1!1sPharmaforceiq+mumbai!3m6!1s0x3be7b6249988a9b3:0x34a1f79e2ed3eec3!8m2!3d19.1336691!4d72.8364399!15sChRQaGFybWFmb3JjZWlxIG11bWJhaVoWIhRwaGFybWFmb3JjZWlxIG11bWJhaZIBFmVuZ2luZWVyaW5nX2NvbnN1bHRhbnSaASRDaGREU1VoTk1HOW5TMFZKUTBGblNVTTNkVTloWW1oM1JSQUKqAVoKCC9tLzA0dm1wEAEqESINcGhhcm1hZm9yY2VpcSgAMh8QASIbsjvPnZgqU--EsoP3SK3QrB8Xd3yGNcL4b7piMhgQAiIUcGhhcm1hZm9yY2VpcSBtdW1iYWngAQD6AQQIABBJ!16s%2Fg%2F11c581n2fk?entry=ttu&g_ep=EgoyMDI1MDcwNy4wIKXMDSoASAFQAw%3D%3D"
Explore 360 HR Solutions,not found,093725 13251,20.6924466,75.3291284,"https://www.google.com/maps/place/Explore+360+HR+Solutions/@20.6924466,75.0407373,11z/data=!4m10!1m2!2m1!1sHR+Solutions+mumbai!3m6!1s0x3be7c9bdece6397b:0x4ee5d18058ac7f34!8m2!3d20.6924466!4d75.3291284!15sChNIUiBTb2x1dGlvbnMgbXVtYmFpWhUiE2hyIHNvbHV0aW9ucyBtdW1iYWmSARpodW1hbl9yZXNzb3VyY2VfY29uc3VsdGluZ5oBJENoZERTVWhOTUc5blMwVk5Teko0VERNMGVtTmxOVzEzUlJBQqoBVQoNL2cvMTFienQ4eGRwMQoIL20vMDR2bXAQATIfEAEiG9rPbcy7QEEw73AUl_FPkasKo9EgIBWIl4tM7jIXEAIiE2hyIHNvbHV0aW9ucyBtdW1iYWngAQD6AQQIABBI!16s%2Fg%2F11k55c3q94?entry=ttu&g_ep=EgoyMDI1MDcwNy4wIKXMDSoASAFQAw%3D%3D"
Thinkpod HR Solutions Pvt. Ltd.,"Nerul Station Complex, C-216, 2nd, Nerul East, Navi Mumbai, Maharashtra 400706",098201 75633,19.0332774,73.0180735,"https://www.google.com/maps/place/Thinkpod+HR+Solutions+Pvt.+Ltd./@20.6924466,75.0407373,11z/data=!4m10!1m2!2m1!1sHR+Solutions+mumbai!3m6!1s0x3be7c35d82c9d747:0x527e34173b6ddec!8m2!3d19.0332774!4d73.0180735!15sChNIUiBTb2x1dGlvbnMgbXVtYmFpWhUiE2hyIHNvbHV0aW9ucyBtdW1iYWmSARFlbXBsb3ltZW50X2FnZW5jeaoBVQoNL2cvMTFienQ4eGRwMQoIL20vMDR2bXAQATIfEAEiG9rPbcy7QEEw73AUl_FPkasKo9EgIBWIl4tM7jIXEAIiE2hyIHNvbHV0aW9ucyBtdW1iYWngAQA!16s%2Fg%2F11gj0wvxgx?entry=ttu&g_ep=EgoyMDI1MDcwNy4wIKXMDSoASAFQAw%3D%3D"
H R Solutions,not found,096642 36920,19.1181463,72.8453316,"https://www.google.com/maps/place/H+R+Solutions/@19.0332774,72.7296824,11z/data=!3m1!5s0x3be7c3e9e8cffb15:0x8c8768b7eb3b94ef!4m10!1m2!2m1!1sHR+Solutions+mumbai!3m6!1s0x3be7c9d6fd6d5237:0x88bb487c57c38855!8m2!3d19.1181463!4d72.8453316!15sChNIUiBTb2x1dGlvbnMgbXVtYmFpWhUiE2hyIHNvbHV0aW9ucyBtdW1iYWmSAQ5jb21wdXRlcl9zdG9yZaoBSwoNL2cvMTFienQ4eGRwMRABMh8QASIb2s9tzLtAQTDvcBSX8U-Rqwqj0SAgFYiXi0zuMhcQAiITaHIgc29sdXRpb25zIG11bWJhaeABAA!16s%2Fg%2F11bzt8xdp1?entry=ttu&g_ep=EgoyMDI1MDcwNy4wIKXMDSoASAFQAw%3D%3D"
RS HR Team Solutions,not found,022 3948 6666,19.1133513,72.8606207,"https://www.google.com/maps/place/RS+HR+Team+Solutions/@19.1181463,72.5569405,11z/data=!4m10!1m2!2m1!1sHR+Solutions+mumbai!3m6!1s0x3be7c830dede19a3:0xb134e78279fc57bc!8m2!3d19.1133513!4d72.8606207!15sChNIUiBTb2x1dGlvbnMgbXVtYmFpWhUiE2hyIHNvbHV0aW9ucyBtdW1iYWmSARpodW1hbl9yZXNzb3VyY2VfY29uc3VsdGluZ5oBJENoZERTVWhOTUc5blMwVkpRMEZuU1VNdGRGQXpjWGgzUlJBQqoBVQoNL2cvMTFienQ4eGRwMQoIL20vMDR2bXAQATIfEAEiG9rPbcy7QEEw73AUl_FPkasKo9EgIBWIl4tM7jIXEAIiE2hyIHNvbHV0aW9ucyBtdW1iYWngAQD6AQQIABA6!16s%2Fg%2F11c2pf190t?entry=ttu&g_ep=EgoyMDI1MDcwNy4wIKXMDSoASAFQAw%3D%3D"
AUM HR Solutions,"First Floor, Ajanta House, A/35, Makwana Rd, opp. Marol Bhavan, Marol, Andheri East, Mumbai, Maharashtra 400059",022 4516 1762,19.1123242,72.8834164,"https://www.google.com/maps/place/AUM+HR+Solutions/@19.1181463,72.5569405,11z/data=!4m10!1m2!2m1!1sHR+Solutions+mumbai!3m6!1s0x646ede09fff96edf:0xab5f5f03e600dc43!8m2!3d19.1123242!4d72.8834164!15sChNIUiBTb2x1dGlvbnMgbXVtYmFpWhUiE2hyIHNvbHV0aW9ucyBtdW1iYWmSARpodW1hbl9yZXNzb3VyY2VfY29uc3VsdGluZ6oBVQoNL2cvMTFienQ4eGRwMQoIL20vMDR2bXAQATIfEAEiG9rPbcy7QEEw73AUl_FPkasKo9EgIBWIl4tM7jIXEAIiE2hyIHNvbHV0aW9ucyBtdW1iYWngAQA!16s%2Fg%2F11w35s_vt0?entry=ttu&g_ep=EgoyMDI1MDcwNy4wIKXMDSoASAFQAw%3D%3D"
Expertical HR Solutions,not found,not found,19.1091664,72.8855009,"https://www.google.com/maps/place/Expertical+HR+Solutions/@19.1181463,72.5569405,11z/data=!3m1!5s0x3be7c813ee257ba9:0x6aad6459c4ed71ef!4m10!1m2!2m1!1sHR+Solutions+mumbai!3m6!1s0x3be7c939f2557abf:0xa15792eec5f0c3e8!8m2!3d19.1091664!4d72.8855009!15sChNIUiBTb2x1dGlvbnMgbXVtYmFpWhUiE2hyIHNvbHV0aW9ucyBtdW1iYWmSARVlbXBsb3ltZW50X2NvbnN1bHRhbnSaASRDaGREU1VoTk1HOW5TMFZKUTBGblRVUkJOMkZ1VlhWM1JSQUKqAVUKDS9nLzExYnp0OHhkcDEKCC9tLzA0dm1wEAEyHxABIhvaz23Mu0BBMO9wFJfxT5GrCqPRICAViJeLTO4yFxACIhNociBzb2x1dGlvbnMgbXVtYmFp4AEA-gEFCKACED4!16s%2Fg%2F11kjg4d7h8?entry=ttu&g_ep=EgoyMDI1MDcwNy4wIKXMDSoASAFQAw%3D%3D"
IBM India Private Limited,"4Th Floor, IL&FS Financial Centre, G Block BKC, Bandra Kurla Complex, Bandra East, Mumbai, Maharashtra 400051",022 4058 9000,19.0630158,72.8607968,"https://www.google.com/maps/place/IBM+India+Private+Limited/@19.0829325,72.3842372,9z/data=!3m1!5s0x3bced18e0f572dd5:0x60205ba3f168af62!4m10!1m2!2m1!1sIBM+mumbai!3m6!1s0x3be7c8e7abbbf523:0x73e7d0d166331c7e!8m2!3d19.0630158!4d72.8607968!15sCgpJQk0gbXVtYmFpIgOIAQGSARBzb2Z0d2FyZV9jb21wYW55qgFUCg0vZy8xMWJjNW5rMXRqCggvbS8wM3NjOBABKgciA2libSgAMh4QASIavyN3s2qjWRTK1XxQWalaKFpDYDQs-abDI24yDhACIgppYm0gbXVtYmFp4AEA!16s%2Fg%2F1td7g5zl?entry=ttu&g_ep=EgoyMDI1MDcwNy4wIKXMDSoASAFQAw%3D%3D"
Capgemini India M4 Office,"Plant 5, Main Gate, Godrej & Boyce Compound, Lal Bahadur Shastri Marg, Pirojshanagar, Vikhroli West, Mumbai, Maharashtra 400079",not found,19.100195,72.9199991,"https://www.google.com/maps/place/Capgemini+India+M4+Office/@19.1390327,72.9136935,13z/data=!4m10!1m2!2m1!1sCapgemini+mumbai!3m6!1s0x3be7c7c871c655a9:0x6243f7276c83be44!8m2!3d19.100195!4d72.9199991!15sChBDYXBnZW1pbmkgbXVtYmFpIgOIAQGSARBjb3Jwb3JhdGVfb2ZmaWNlqgFhCg0vZy8xMWJjNXo3dzJxCgkvbS8wM3ZsazAQASoNIgljYXBnZW1pbmkoADIeEAEiGra9VYwZtk660pmbVaYadvtjvmodCcsO1S0YMhQQAiIQY2FwZ2VtaW5pIG11bWJhaeABAA!16s%2Fg%2F113jlf4vd?entry=ttu&g_ep=EgoyMDI1MDcwNy4wIKXMDSoASAFQAw%3D%3D"
Deutsche Bank,not found,not found,19.1542949,72.8529408,"https://www.google.com/maps/place/Deutsche+Bank/@19.0829325,72.3842372,9z/data=!4m10!1m2!2m1!1sDeutsche+Bank+mumbai!3m6!1s0x3be7b7b51f3eba57:0xfff8a8a037387573!8m2!3d19.1542949!4d72.8529408!15sChREZXV0c2NoZSBCYW5rIG11bWJhaSIDiAEBkgEEYmFua6oBhgEKDS9nLzExYmM1YmsxOWwKDS9nLzExZjl2eDJ2MngKDC9nLzFwdHZ0ZmNiYgoJL20vMDJsYzhzEAEqESINZGV1dHNjaGUgYmFuaygAMh4QASIaj_bj5eHsfCFu077Nyar-BzBKAwW3uyJotVQyGBACIhRkZXV0c2NoZSBiYW5rIG11bWJhaeABAA!16s%2Fg%2F1ttyv612?entry=ttu&g_ep=EgoyMDI1MDcwNy4wIKXMDSoASAFQAw%3D%3D"
Aurigo Software Technologies,"Level 6, Commerce@Mantri Building, 12/2, Bannerghatta Rd, NS Palya, BTM 2nd Stage, BTM Layout, Bengaluru, Karnataka 560076",080 6254 2500,12.9120569,77.6002176,"https://www.google.com/maps/place/Aurigo+Software+Technologies/@19.0175225,67.7439548,6z/data=!4m10!1m2!2m1!1sAurigo+Software+Technologies+mumbai!3m6!1s0x3bae1460daaeaff1:0x84f1cbf2bd01318e!8m2!3d12.9120569!4d77.6002176!15sCiNBdXJpZ28gU29mdHdhcmUgVGVjaG5vbG9naWVzIG11bWJhaVolIiNhdXJpZ28gc29mdHdhcmUgdGVjaG5vbG9naWVzIG11bWJhaZIBEHNvZnR3YXJlX2NvbXBhbnmaASRDaGREU1VoTk1HOW5TMFZKUTBGblNVUTJkWEp0UVRSUlJSQUKqAXwKDS9nLzExYzU3azNmdzMQASogIhxhdXJpZ28gc29mdHdhcmUgdGVjaG5vbG9naWVzKAAyHhABIhraWHAL5jSKf3vjk6Umog2Y7Do-Cbx35PM1dTInEAIiI2F1cmlnbyBzb2Z0d2FyZSB0ZWNobm9sb2dpZXMgbXVtYmFp4AEA-gEECAAQSQ!16s%2Fg%2F11bztfw3cd?entry=ttu&g_ep=EgoyMDI1MDcwNy4wIKXMDSoASAFQAw%3D%3D"
Flex India,"Safal Pride Tower, Sion - Panvel Hwy, Dattaguru Society, Chembur, Mumbai, Maharashtra 400088",022 6765 7076,19.0458057,72.9151414,"https://www.google.com/maps/place/Flex+India/@19.0619911,72.8006745,12z/data=!4m10!1m2!2m1!1sFlexm+mumbai!3m6!1s0x3be7c60974f2e8bb:0x890eae341cc8ca78!8m2!3d19.0458057!4d72.9151414!15sCgxGbGV4bSBtdW1iYWmSARNlbGVjdHJvbmljc19jb21wYW55qgFAEAEqCSIFZmxleG0oADIfEAEiG-_gZaMBsDKuhwREQ8PG5BKdQ7aRfIaY6w4oVzIQEAIiDGZsZXhtIG11bWJhaeABAA!16s%2Fg%2F11bw5wzxsl?entry=ttu&g_ep=EgoyMDI1MDcwNy4wIKXMDSoASAFQAw%3D%3D"
Alpha Digital Corp,"3VXP+C2C, Safed Pul, Saki Naka, Mumbai, Maharashtra 400072",not found,19.0985731,72.8850052,"https://www.google.com/maps/place/Alpha+Digital+Corp/@19.1629938,72.7768372,12z/data=!4m10!1m2!2m1!1sDigital+Alpha+mumbai!3m6!1s0x3be7c9001d35e99f:0xaecedc42f1a686f!8m2!3d19.0985731!4d72.8850052!15sChREaWdpdGFsIEFscGhhIG11bWJhaZIBEGNvcnBvcmF0ZV9vZmZpY2WqAV8KDS9nLzExaDF5YmpscGgQASoRIg1kaWdpdGFsIGFscGhhKAAyHxABIhva1RRCcdgnfiLD9n2yRfaTobmume_TPIF99LAyGBACIhRkaWdpdGFsIGFscGhhIG11bWJhaeABAA!16s%2Fg%2F11v_09p1br?entry=ttu&g_ep=EgoyMDI1MDcwNy4wIKXMDSoASAFQAw%3D%3D"
Forbes & Company Limited,"Forbes Building, Charanjit Rai Marg, Azad Maidan, Fort, Mumbai, Maharashtra 400001",022 6135 8902,18.9365964,72.8324059,"https://www.google.com/maps/place/Forbes+%26+Company+Limited/@19.0252089,72.7546093,12z/data=!4m10!1m2!2m1!1sForbes+Advisor+mumbai!3m6!1s0x3be7d1dc19691cb9:0xa799057f23328762!8m2!3d18.9365964!4d72.8324059!15sChVGb3JiZXMgQWR2aXNvciBtdW1iYWlaFyIVZm9yYmVzIGFkdmlzb3IgbXVtYmFpkgEQY29ycG9yYXRlX29mZmljZZoBI0NoWkRTVWhOTUc5blMwVkpRMEZuU1VObE1UZzNRMHhSRUFFqgFSEAEqEiIOZm9yYmVzIGFkdmlzb3IoADIfEAEiG-SvnFdQEH2_oZJrMy5-rkKHHt3HfuSdmW5nSTIZEAIiFWZvcmJlcyBhZHZpc29yIG11bWJhaeABAPoBBAgAEBA!16s%2Fg%2F11bv5t2gjy?entry=ttu&g_ep=EgoyMDI1MDcwNy4wIKXMDSoASAFQAw%3D%3D"
Forbes Center of Excellence (Forbes COE),not found,not found,19.1135334,72.8586558,"https://www.google.com/maps/place/Forbes+Center+of+Excellence+(Forbes+COE)/@18.9365964,72.6882103,12z/data=!4m10!1m2!2m1!1sForbes+Advisor+mumbai!3m6!1s0x3be7c964fbdc7809:0x291dd71a8d6dcf9e!8m2!3d19.1135334!4d72.8586558!15sChVGb3JiZXMgQWR2aXNvciBtdW1iYWmSARBjb3Jwb3JhdGVfb2ZmaWNlqgFSEAEqEiIOZm9yYmVzIGFkdmlzb3IoADIfEAEiG-SvnFdQEH2_oZJrMy5-rkKHHt3HfuSdmW5nSTIZEAIiFWZvcmJlcyBhZHZpc29yIG11bWJhaeABAA!16s%2Fg%2F11frqw6xh7?entry=ttu&g_ep=EgoyMDI1MDcwNy4wIKXMDSoASAFQAw%3D%3D"
Crimson,not found,022 6692 7574,19.133164,72.899455,"https://www.google.com/maps/place/Crimson/@19.1542033,72.8317468,13z/data=!4m10!1m2!2m1!1sCrimson+mumbai!3m6!1s0x3be7c7e483ff7bc5:0x1dea8a835fbe2df4!8m2!3d19.133164!4d72.899455!15sCg5Dcmltc29uIG11bWJhaVoQIg5jcmltc29uIG11bWJhaZIBCnJlc3RhdXJhbnSqAUMKCy9nLzF2NWsxZ3NnEAEyHhABIhrWaRZoo47KCRqK1TO6uLVLsVlrFX7nrvynZTISEAIiDmNyaW1zb24gbXVtYmFp4AEA!16s%2Fg%2F1v5k1gsg?entry=ttu&g_ep=EgoyMDI1MDcwNy4wIKXMDSoASAFQAw%3D%3D"
Larsen & Toubro,"Gate No, 1, Saki Vihar Rd, Krishna Nagar, Powai, Mumbai, Maharashtra 400072",022 6776 6776,19.1256677,72.8925517,"https://www.google.com/maps/place/Larsen+%26+Toubro/@19.083058,72.87894,11z/data=!4m10!1m2!2m1!1sLarsen+%26+Toubro+(L%26T)+mumbai!3m6!1s0x3be7c803e0c01eef:0x7deac84c1e76c153!8m2!3d19.1256677!4d72.8925517!15sChxMYXJzZW4gJiBUb3Vicm8gKEwmVCkgbXVtYmFpIgOIAQGSAQxtYW51ZmFjdHVyZXKqAXYKDS9nLzExYmM1dHRmdnQKCS9tLzA3cTRxbRABKhciE2xhcnNlbiAmIHRvdWJybyBsJnQoADIfEAEiG2KhhtDSyfupwvtrd470rFqifuAvfrtXqdyREjIeEAIiGmxhcnNlbiAmIHRvdWJybyBsJnQgbXVtYmFp4AEA!16s%2Fg%2F1thw55yg?entry=ttu&g_ep=EgoyMDI1MDcwNy4wIKXMDSoASAFQAw%3D%3D"
JoinHub Pharma Pvt Ltd,"Iscon Cross Roads, A - 502, 5th Floor, Mondeal Heights, Sarkhej - Gandhinagar Hwy, nr. Novotel hotels, Ahmedabad, Gujarat 380015",097247 25604,23.023448,72.506988,"https://www.google.com/maps/place/JoinHub+Pharma+Pvt+Ltd/@19.0175225,67.7439548,6z/data=!3m1!5s0x395e9b3af53455c9:0xa005fb62b9d5e319!4m10!1m2!2m1!1sJoin+Hub+mumbai!3m6!1s0x395e9b89ec6ff65d:0xeeebce04664cb9cd!8m2!3d23.023448!4d72.506988!15sCg9Kb2luIEh1YiBtdW1iYWlaESIPam9pbiBodWIgbXVtYmFpkgEWcGhhcm1hY2V1dGljYWxfY29tcGFueZoBI0NoWkRTVWhOTUc5blMwVkpRMEZuU1VSUExWQlVUR0puRUFFqgFFEAEqDCIIam9pbiBodWIoADIeEAEiGuDqfb1EJUzmEiubXydGaRkn4AwqUDzq1srNMhMQAiIPam9pbiBodWIgbXVtYmFp4AEA-gEECAAQLw!16s%2Fg%2F11q1vvjnrz?entry=ttu&g_ep=EgoyMDI1MDcwNy4wIKXMDSoASAFQAw%3D%3D"
Kores India Limited (Corporate),"301 ,302, Ashford Chambers, Lady Jamshedji Rd, Mahim West, Shivaji Park, Mumbai, Maharashtra 400016",022 6969 6800,19.0305618,72.8412549,"https://www.google.com/maps/place/Kores+India+Limited+(Corporate)/@19.0135489,72.8097106,14z/data=!4m10!1m2!2m1!1sCoursera+mumbai!3m6!1s0x115ae7cdd89b0539:0xa79d257d65de8e66!8m2!3d19.0305618!4d72.8412549!15sCg9Db3Vyc2VyYSBtdW1iYWlaESIPY291cnNlcmEgbXVtYmFpkgEQY29ycG9yYXRlX29mZmljZZoBRENpOURRVWxSUVVOdlpFTm9kSGxqUmpsdlQydE9TMVI2VlhST1ZHd3pUVlZzY0ZreGNGUldiVnA1VFRGQ2VGZHNSUkFCqgFRCgovbS8wajlrYmJ6EAEqDCIIY291cnNlcmEoADIeEAEiGvCKw2lC9I0gvs_QZTWLMwvS5MbMexcnrutyMhMQAiIPY291cnNlcmEgbXVtYmFp4AEA-gEECDkQPg!16s%2Fg%2F1tv3m4h4?entry=ttu&g_ep=EgoyMDI1MDcwNy4wIKXMDSoASAFQAw%3D%3D"
Apollo Spectra Hospitals,"Famous Cine Labs 156, behind Everest Building, Tardeo, Mumbai, Maharashtra 400034",084484 40991,18.97071,72.8145189,"https://www.google.com/maps/place/Apollo+Spectra+Hospitals/@19.083058,72.87894,11z/data=!4m10!1m2!2m1!1sApollo.io+mumbai!3m6!1s0x3be7ce7190366d17:0x74b428b06265d818!8m2!3d18.97071!4d72.8145189!15sChBBcG9sbG8uaW8gbXVtYmFpWhIiEGFwb2xsbyBpbyBtdW1iYWmSARRzcGVjaWFsaXplZF9ob3NwaXRhbKoBSBABKg0iCWFwb2xsbyBpbygAMh8QASIb34snYBNKHlwsbb8W9Iz6t0sINC1eFehdCxUiMhQQAiIQYXBvbGxvIGlvIG11bWJhaeABAA!16s%2Fg%2F11b8c1c82t?entry=ttu&g_ep=EgoyMDI1MDcwNy4wIKXMDSoASAFQAw%3D%3D"
Apollo Finvest India Limited,not found,022 6223 1667,19.1403307,72.8336063,"https://www.google.com/maps/place/Apollo+Finvest+India+Limited/@18.97071,72.5261278,11z/data=!4m10!1m2!2m1!1sApollo.io+mumbai!3m6!1s0x3be7b6234eef3f09:0x9b859b2f218df065!8m2!3d19.1403307!4d72.8336063!15sChBBcG9sbG8uaW8gbXVtYmFpWhIiEGFwb2xsbyBpbyBtdW1iYWmSARBjb3Jwb3JhdGVfb2ZmaWNlmgEjQ2haRFNVaE5NRzluUzBWSlEwRm5TVU5zZWxwTVgxRkJFQUWqAUgQASoNIglhcG9sbG8gaW8oADIfEAEiG9-LJ2ATSh5cLG2_FvSM-rdLCDQtXhXoXQsVIjIUEAIiEGFwb2xsbyBpbyBtdW1iYWngAQD6AQQINBBI!16s%2Fg%2F11c59_4y3t?entry=ttu&g_ep=EgoyMDI1MDcwNy4wIKXMDSoASAFQAw%3D%3D"
Apollo HomeCare - Best Home Healthcare Services in Mumbai,"12th floor, A Wing, The Great Eastern Summit, Sector 15, CBD Belapur, Navi Mumbai, Maharashtra 400614",not found,19.0102964,73.035616,"https://www.google.com/maps/place/Apollo+HomeCare+-+Best+Home+Healthcare+Services+in+Mumbai/@18.97071,72.5261278,11z/data=!4m10!1m2!2m1!1sApollo.io+mumbai!3m6!1s0x3be7bfcdd33d5643:0xf50f0717a84c5334!8m2!3d19.0102964!4d73.035616!15sChBBcG9sbG8uaW8gbXVtYmFpWhIiEGFwb2xsbyBpbyBtdW1iYWmSARhob21lX2hlYWx0aF9jYXJlX3NlcnZpY2WaASNDaFpEU1VoTk1HOW5TMFZKUTBGblNVUktkMk5xVFdSQkVBRaoBUgoIL20vMDR2bXAQASoNIglhcG9sbG8gaW8oADIfEAEiG9-LJ2ATSh5cLG2_FvSM-rdLCDQtXhXoXQsVIjIUEAIiEGFwb2xsbyBpbyBtdW1iYWngAQD6AQQIKxAm!16s%2Fg%2F11sd1v0j0f?entry=ttu&g_ep=EgoyMDI1MDcwNy4wIKXMDSoASAFQAw%3D%3D"
Apollo Global Management,"Tower 4, NESCO IT Park, 14, 15, 16 Floor, South Wing A, Goregaon, Mumbai, Maharashtra 400063",not found,19.1514128,72.8543676,"https://www.google.com/maps/place/Apollo+Global+Management/@19.0102964,72.7472249,11z/data=!3m1!5s0x3be7c68efcac1b93:0x4020ac0af842f61d!4m10!1m2!2m1!1sApollo.io+mumbai!3m6!1s0x3be7b7df80c9b1b7:0xbf5aea9fb097f6be!8m2!3d19.1514128!4d72.8543676!15sChBBcG9sbG8uaW8gbXVtYmFpWhIiEGFwb2xsbyBpbyBtdW1iYWmSARBjb3Jwb3JhdGVfb2ZmaWNlmgEjQ2haRFNVaE5NRzluUzBWSlEwRm5TVVJZY1dZdFFsRkJFQUWqAUgQASoNIglhcG9sbG8gaW8oADIfEAEiG9-LJ2ATSh5cLG2_FvSM-rdLCDQtXhXoXQsVIjIUEAIiEGFwb2xsbyBpbyBtdW1iYWngAQD6AQQIABAT!16s%2Fg%2F11s65cz59x?entry=ttu&g_ep=EgoyMDI1MDcwNy4wIKXMDSoASAFQAw%3D%3D"
Apollo Spectra Hospital,"2WW6+VCW, apollo spectra hospital, Ujagar Compund Opp. Deonar Bus Depot Main GAte, MBPT Colony, Best Colony, Chembur, Mumbai, Maharashtra 400088",084484 40991,19.047139,72.9110992,"https://www.google.com/maps/place/Apollo+Spectra+Hospital/@19.1514128,72.5659765,11z/data=!4m10!1m2!2m1!1sApollo.io+mumbai!3m6!1s0x3be7c6089a207511:0xf27685f9b71711fd!8m2!3d19.047139!4d72.9110992!15sChBBcG9sbG8uaW8gbXVtYmFpWhIiEGFwb2xsbyBpbyBtdW1iYWmSARRzcGVjaWFsaXplZF9ob3NwaXRhbJoBJENoZERTVWhOTUc5blMwVkpRMEZuU1VSNk4zUkROalIzUlJBQqoBSBABKg0iCWFwb2xsbyBpbygAMh8QASIb34snYBNKHlwsbb8W9Iz6t0sINC1eFehdCxUiMhQQAiIQYXBvbGxvIGlvIG11bWJhaeABAPoBBAhlEEw!16s%2Fg%2F1hc10l2dm?entry=ttu&g_ep=EgoyMDI1MDcwNy4wIKXMDSoASAFQAw%3D%3D"
Apollo Clinic,"Ground Floor, Eucharistic congress Building No. 1, 5, Convent street, Apollo Bandar, Colaba, Mumbai, Maharashtra 400001",022 2202 1122,18.923251,72.8313256,"https://www.google.com/maps/place/Apollo+Clinic/@19.1514128,72.5659765,11z/data=!4m10!1m2!2m1!1sApollo.io+mumbai!3m6!1s0x3be7d1c10607a41d:0x1e9efd7869b169f2!8m2!3d18.923251!4d72.8313256!15sChBBcG9sbG8uaW8gbXVtYmFpWhIiEGFwb2xsbyBpbyBtdW1iYWmSAQhob3NwaXRhbJoBJENoZERTVWhOTUc5blMwVkpRMEZuU1VSa00zWmZMVEJuUlJBQqoBSBABKg0iCWFwb2xsbyBpbygAMh8QASIb34snYBNKHlwsbb8W9Iz6t0sINC1eFehdCxUiMhQQAiIQYXBvbGxvIGlvIG11bWJhaeABAPoBBAhhEEw!16s%2Fg%2F1ptwf8fpt?entry=ttu&g_ep=EgoyMDI1MDcwNy4wIKXMDSoASAFQAw%3D%3D"
Prime Consultancy (Bhausaheb Shinde),"312, 3rd Floor, PRABHADEVI INDUSTRIAL ESTATE, Swatantryaveer Savarkar Rd, opp. Prabhadevi Siddhivinayak Temple, next to Domino's Pizza, Prabhadevi, Mumbai, Maharashtra 400025",022 2431 8955,19.0165692,72.82897,"https://www.google.com/maps/place/Prime+Consultancy+(Bhausaheb+Shinde)/@19.083058,72.87894,11z/data=!4m10!1m2!2m1!1sEuprime+Consulting+mumbai!3m6!1s0x3be7cec13e926b93:0xc7f95f20d6bad1fb!8m2!3d19.0165692!4d72.82897!15sChlFdXByaW1lIENvbnN1bHRpbmcgbXVtYmFpWhsiGWV1cHJpbWUgY29uc3VsdGluZyBtdW1iYWmSAQpjb25zdWx0YW50mgEkQ2hkRFNVaE5NRzluUzBWSlEwRm5TVU5mYUhOWE9YZDNSUkFCqgFvCgkvbS8wMm45anYKCC9tLzA0dm1wEAEqFiISZXVwcmltZSBjb25zdWx0aW5nKAAyHxABIhvgral_kS7p1fl2KPvE9fvvkLlQMrd3aUe6heMyHRACIhlldXByaW1lIGNvbnN1bHRpbmcgbXVtYmFp4AEA-gEECAAQJQ!16s%2Fg%2F1yg6nr1hs?entry=ttu&g_ep=EgoyMDI1MDcwNy4wIKXMDSoASAFQAw%3D%3D"
Online Training | Tableau | Python | Django | MySQL,"Green Lane, Anand Vihar, Sher E Punjab Colony, Andheri East, Mumbai, Maharashtra 400093",not found,19.1271979,72.8610038,"https://www.google.com/maps/place/Online+Training+%7C+Tableau+%7C+Python+%7C+Django+%7C+MySQL/@19.083058,72.87894,11z/data=!4m10!1m2!2m1!1sTableau+Software+mumbai!3m6!1s0x3be7c9f68a4acf47:0x8be297d399902350!8m2!3d19.1271979!4d72.8610038!15sChdUYWJsZWF1IFNvZnR3YXJlIG11bWJhaSIDiAEBWhkiF3RhYmxlYXUgc29mdHdhcmUgbXVtYmFpkgEPdHJhaW5pbmdfY2VudGVyqgFxCg0vZy8xMWNra3lzXzk1CgovbS8wMnM5azgwEAEqFCIQdGFibGVhdSBzb2Z0d2FyZSgAMh8QASIb9pnMzsPrG_wvVDbQMteLFgRv6a-lMdkRIrYEMhsQAiIXdGFibGVhdSBzb2Z0d2FyZSBtdW1iYWngAQA!16s%2Fg%2F11h5rq5tcb?entry=ttu&g_ep=EgoyMDI1MDcwNy4wIKXMDSoASAFQAw%3D%3D"
Advanced Bolting Solutions Pvt. Ltd.,"A, Plot No W116, TTC Industrial Area, MIDC Industrial Area, Kopar Khairane, Navi Mumbai, Maharashtra 400710",082828 29795,19.0948393,73.0193339,"https://www.google.com/maps/place/Advanced+Bolting+Solutions+Pvt.+Ltd./@19.083058,72.87894,11z/data=!4m10!1m2!2m1!1sAdvance+Innovation+Group+mumbai!3m6!1s0x3be7c0e13f10c127:0xfa2009825fe9c1b1!8m2!3d19.0948393!4d73.0193339!15sCh9BZHZhbmNlIElubm92YXRpb24gR3JvdXAgbXVtYmFpWiEiH2FkdmFuY2UgaW5ub3ZhdGlvbiBncm91cCBtdW1iYWmSARBjb3Jwb3JhdGVfb2ZmaWNlqgFmEAEqHCIYYWR2YW5jZSBpbm5vdmF0aW9uIGdyb3VwKAAyHxABIhvZmknyKgFf7EBSLt8BiKICr7PEyrWRylCSQYYyIxACIh9hZHZhbmNlIGlubm92YXRpb24gZ3JvdXAgbXVtYmFp4AEA!16s%2Fg%2F11b6yqtfw5?entry=ttu&g_ep=EgoyMDI1MDcwNy4wIKXMDSoASAFQAw%3D%3D"
Uplers,"Uplers House, Sattadhar Cross Rd, next to Kalasagar Mall, Shenbhai Nagar, Ahmedabad, Gujarat 380061",079 4032 4566,23.0655828,72.5316642,"https://www.google.com/maps/place/Uplers/@19.0175225,67.7439548,6z/data=!4m10!1m2!2m1!1sUplers+mumbai!3m6!1s0x395e9b4e7bc65c17:0x8881db708141e320!8m2!3d23.0655828!4d72.5316642!15sCg1VcGxlcnMgbXVtYmFpWg8iDXVwbGVycyBtdW1iYWmSARxidXNpbmVzc190b19idXNpbmVzc19zZXJ2aWNlqgFMCggvbS8wNHZtcBABKgoiBnVwbGVycygAMh8QASIb-_HJ-zpvwwAYL2h4im3uut9Dwhir8f2GjOKuMhEQAiINdXBsZXJzIG11bWJhaeABAA!16s%2Fg%2F11z4kccm9?entry=ttu&g_ep=EgoyMDI1MDcwNy4wIKXMDSoASAFQAw%3D%3D"
Open Insights Solutions LLP,"Office no. 208, 2nd Floor, Regent Plaza Mall, Baner - Pashan Link Rd, Baner, Pune, Maharashtra 411045",not found,18.5523154,73.7930752,"https://www.google.com/maps/place/Open+Insights+Solutions+LLP/@19.0807089,71.7240005,8z/data=!3m1!5s0x3bc2bf2e6a0777f7:0xbc98384ae2c9340a!4m10!1m2!2m1!1sOpen+Insights+mumbai!3m6!1s0x3bc2b916edcef1a1:0x65ae6898b95ddb5e!8m2!3d18.5523154!4d73.7930752!15sChRPcGVuIEluc2lnaHRzIG11bWJhaZIBEHNvZnR3YXJlX2NvbXBhbnmqAVAQASoRIg1vcGVuIGluc2lnaHRzKAAyHxABIhvACbZFjMMGYbJBdidbcFp07LS6syiVq7iJp9gyGBACIhRvcGVuIGluc2lnaHRzIG11bWJhaeABAA!16s%2Fg%2F11g81d7mv0?entry=ttu&g_ep=EgoyMDI1MDcwNy4wIKXMDSoASAFQAw%3D%3D"
